[
  {
    "OBJECT_NAME": "STARLINK-31543",
    "OBJECT_ID": "24064E",
    "EPOCH": "2025-11-11T05:03:37.969632",
    "MEAN_MOTION": 15.2758124,
    "ECCENTRICITY": 0.0001125,
    "INCLINATION": 43.0015,
    "RA_OF_ASC_NODE": 5.4848,
    "ARG_OF_PERICENTER": 266.2511,
    "MEAN_ANOMALY": 93.8212,
    "EPHEMERIS_TYPE": 0,
    "CLASSIFICATION_TYPE": "U",
    "NORAD_CAT_ID": 59402,
    "ELEMENT_SET_NO": 999,
    "REV_AT_EPOCH": 9110,
    "BSTAR": 0.0002235,
    "MEAN_MOTION_DOT": 5.893e-05,
    "MEAN_MOTION_DDOT": 0.0,
    "TLE_LINE1": "1 59402U 24064E   25315.21085613  .00005893  00000+0  22350-3 0  9997",
    "TLE_LINE2": "2 59402  43.0015   5.4848 0001125 266.2511  93.8212 15.27581240 91107",
    "COMMENT": "Grouped by shell and plane from TLE"
  },
  {
    "OBJECT_NAME": "STARLINK-31366",
    "OBJECT_ID": "24064F",
    "EPOCH": "2025-11-11T04:43:16.704768",
    "MEAN_MOTION": 15.2757864,
    "ECCENTRICITY": 5.55e-05,
    "INCLINATION": 43.0022,
    "RA_OF_ASC_NODE": 5.3719,
    "ARG_OF_PERICENTER": 254.4893,
    "MEAN_ANOMALY": 105.5898,
    "EPHEMERIS_TYPE": 0,
    "CLASSIFICATION_TYPE": "U",
    "NORAD_CAT_ID": 59403,
    "ELEMENT_SET_NO": 999,
    "REV_AT_EPOCH": 9110,
    "BSTAR": 3.9622e-05,
    "MEAN_MOTION_DOT": 8.29e-06,
    "MEAN_MOTION_DDOT": 0.0,
    "TLE_LINE1": "1 59403U 24064F   25315.19672112  .00000829  00000+0  39622-4 0  9996",
    "TLE_LINE2": "2 59403  43.0022   5.3719 0000555 254.4893 105.5898 15.27578640 91101",
    "COMMENT": "Grouped by shell and plane from TLE"
  },
  {
    "OBJECT_NAME": "STARLINK-31400",
    "OBJECT_ID": "24064H",
    "EPOCH": "2025-11-11T04:06:16.851168",
    "MEAN_MOTION": 15.27559117,
    "ECCENTRICITY": 0.0001307,
    "INCLINATION": 43.0038,
    "RA_OF_ASC_NODE": 5.183,
    "ARG_OF_PERICENTER": 264.806,
    "MEAN_ANOMALY": 95.2642,
    "EPHEMERIS_TYPE": 0,
    "CLASSIFICATION_TYPE": "U",
    "NORAD_CAT_ID": 59405,
    "ELEMENT_SET_NO": 999,
    "REV_AT_EPOCH": 9110,
    "BSTAR": 0.0,
    "MEAN_MOTION_DOT": -1.341e-05,
    "MEAN_MOTION_DDOT": 0.0,
    "TLE_LINE1": "1 59405U 24064H   25315.17102837 -.00001341  00000+0 -39236-4 0  9991",
    "TLE_LINE2": "2 59405  43.0038   5.1830 0001307 264.8060  95.2642 15.27559117 91109",
    "COMMENT": "Grouped by shell and plane from TLE"
  },
  {
    "OBJECT_NAME": "STARLINK-31391",
    "OBJECT_ID": "24064J",
    "EPOCH": "2025-11-11T04:11:49.196544",
    "MEAN_MOTION": 15.2757754,
    "ECCENTRICITY": 0.0001481,
    "INCLINATION": 43.0045,
    "RA_OF_ASC_NODE": 5.2139,
    "ARG_OF_PERICENTER": 281.2229,
    "MEAN_ANOMALY": 78.8456,
    "EPHEMERIS_TYPE": 0,
    "CLASSIFICATION_TYPE": "U",
    "NORAD_CAT_ID": 59406,
    "ELEMENT_SET_NO": 999,
    "REV_AT_EPOCH": 9110,
    "BSTAR": 0.0,
    "MEAN_MOTION_DOT": -2.86e-06,
    "MEAN_MOTION_DDOT": 0.0,
    "TLE_LINE1": "1 59406U 24064J   25315.17487496 -.00000286  00000+0 -84654-6 0  9992",
    "TLE_LINE2": "2 59406  43.0045   5.2139 0001481 281.2229  78.8456 15.27577540 91104",
    "COMMENT": "Grouped by shell and plane from TLE"
  },
  {
    "OBJECT_NAME": "STARLINK-31387",
    "OBJECT_ID": "24064K",
    "EPOCH": "2025-11-11T03:35:02.336640",
    "MEAN_MOTION": 15.27575269,
    "ECCENTRICITY": 0.0001376,
    "INCLINATION": 43.0036,
    "RA_OF_ASC_NODE": 5.8816,
    "ARG_OF_PERICENTER": 270.2015,
    "MEAN_ANOMALY": 89.8679,
    "EPHEMERIS_TYPE": 0,
    "CLASSIFICATION_TYPE": "U",
    "NORAD_CAT_ID": 59407,
    "ELEMENT_SET_NO": 999,
    "REV_AT_EPOCH": 9109,
    "BSTAR": 1.2913e-05,
    "MEAN_MOTION_DOT": 9.3e-07,
    "MEAN_MOTION_DDOT": 0.0,
    "TLE_LINE1": "1 59407U 24064K   25315.14933260  .00000093  00000+0  12913-4 0  9996",
    "TLE_LINE2": "2 59407  43.0036   5.8816 0001376 270.2015  89.8679 15.27575269 91090",
    "COMMENT": "Grouped by shell and plane from TLE"
  },
  {
    "OBJECT_NAME": "STARLINK-31412",
    "OBJECT_ID": "24064N",
    "EPOCH": "2025-11-11T04:37:42.393792",
    "MEAN_MOTION": 15.27584748,
    "ECCENTRICITY": 5.5e-05,
    "INCLINATION": 43.0008,
    "RA_OF_ASC_NODE": 5.3376,
    "ARG_OF_PERICENTER": 229.4944,
    "MEAN_ANOMALY": 130.586,
    "EPHEMERIS_TYPE": 0,
    "CLASSIFICATION_TYPE": "U",
    "NORAD_CAT_ID": 59410,
    "ELEMENT_SET_NO": 999,
    "REV_AT_EPOCH": 9110,
    "BSTAR": 0.00025923,
    "MEAN_MOTION_DOT": 6.879e-05,
    "MEAN_MOTION_DDOT": 0.0,
    "TLE_LINE1": "1 59410U 24064N   25315.19285178  .00006879  00000+0  25923-3 0  9995",
    "TLE_LINE2": "2 59410  43.0008   5.3376 0000550 229.4944 130.5860 15.27584748 91109",
    "COMMENT": "Grouped by shell and plane from TLE"
  },
  {
    "OBJECT_NAME": "STARLINK-31483",
    "OBJECT_ID": "24064P",
    "EPOCH": "2025-11-11T03:20:13.008480",
    "MEAN_MOTION": 15.27581904,
    "ECCENTRICITY": 0.0002083,
    "INCLINATION": 43.0049,
    "RA_OF_ASC_NODE": 5.8017,
    "ARG_OF_PERICENTER": 269.3553,
    "MEAN_ANOMALY": 90.706,
    "EPHEMERIS_TYPE": 0,
    "CLASSIFICATION_TYPE": "U",
    "NORAD_CAT_ID": 59411,
    "ELEMENT_SET_NO": 999,
    "REV_AT_EPOCH": 9109,
    "BSTAR": 7.547000000000001e-05,
    "MEAN_MOTION_DOT": 1.815e-05,
    "MEAN_MOTION_DDOT": 0.0,
    "TLE_LINE1": "1 59411U 24064P   25315.13903945  .00001815  00000+0  75470-4 0  9997",
    "TLE_LINE2": "2 59411  43.0049   5.8017 0002083 269.3553  90.7060 15.27581904 91092",
    "COMMENT": "Grouped by shell and plane from TLE"
  },
  {
    "OBJECT_NAME": "STARLINK-31568",
    "OBJECT_ID": "24064Q",
    "EPOCH": "2025-11-11T04:58:05.102400",
    "MEAN_MOTION": 15.27582139,
    "ECCENTRICITY": 0.0001066,
    "INCLINATION": 43.0017,
    "RA_OF_ASC_NODE": 5.448,
    "ARG_OF_PERICENTER": 219.3295,
    "MEAN_ANOMALY": 140.7479,
    "EPHEMERIS_TYPE": 0,
    "CLASSIFICATION_TYPE": "U",
    "NORAD_CAT_ID": 59412,
    "ELEMENT_SET_NO": 999,
    "REV_AT_EPOCH": 9110,
    "BSTAR": 0.00030935,
    "MEAN_MOTION_DOT": 8.261e-05,
    "MEAN_MOTION_DDOT": 0.0,
    "TLE_LINE1": "1 59412U 24064Q   25315.20700350  .00008261  00000+0  30935-3 0  9999",
    "TLE_LINE2": "2 59412  43.0017   5.4480 0001066 219.3295 140.7479 15.27582139 91109",
    "COMMENT": "Grouped by shell and plane from TLE"
  },
  {
    "OBJECT_NAME": "STARLINK-31615",
    "OBJECT_ID": "24064R",
    "EPOCH": "2025-11-10T11:32:39.181920",
    "MEAN_MOTION": 15.27570648,
    "ECCENTRICITY": 0.0001175,
    "INCLINATION": 43.0029,
    "RA_OF_ASC_NODE": 2.518,
    "ARG_OF_PERICENTER": 271.9292,
    "MEAN_ANOMALY": 88.1425,
    "EPHEMERIS_TYPE": 0,
    "CLASSIFICATION_TYPE": "U",
    "NORAD_CAT_ID": 59413,
    "ELEMENT_SET_NO": 999,
    "REV_AT_EPOCH": 9107,
    "BSTAR": 4.8433e-06,
    "MEAN_MOTION_DOT": -1.29e-06,
    "MEAN_MOTION_DDOT": 0.0,
    "TLE_LINE1": "1 59413U 24064R   25314.48100905 -.00000129  00000+0  48433-5 0  9999",
    "TLE_LINE2": "2 59413  43.0029   2.5180 0001175 271.9292  88.1425 15.27570648 91074",
    "COMMENT": "Grouped by shell and plane from TLE"
  },
  {
    "OBJECT_NAME": "STARLINK-31398",
    "OBJECT_ID": "24064T",
    "EPOCH": "2025-11-11T04:32:10.387104",
    "MEAN_MOTION": 15.27577449,
    "ECCENTRICITY": 0.0001731,
    "INCLINATION": 43.0069,
    "RA_OF_ASC_NODE": 5.3122,
    "ARG_OF_PERICENTER": 285.3242,
    "MEAN_ANOMALY": 74.7419,
    "EPHEMERIS_TYPE": 0,
    "CLASSIFICATION_TYPE": "U",
    "NORAD_CAT_ID": 59415,
    "ELEMENT_SET_NO": 999,
    "REV_AT_EPOCH": 9110,
    "BSTAR": 1.9449e-05,
    "MEAN_MOTION_DOT": 2.73e-06,
    "MEAN_MOTION_DDOT": 0.0,
    "TLE_LINE1": "1 59415U 24064T   25315.18900911  .00000273  00000+0  19449-4 0  9997",
    "TLE_LINE2": "2 59415  43.0069   5.3122 0001731 285.3242  74.7419 15.27577449 91103",
    "COMMENT": "Grouped by shell and plane from TLE"
  },
  {
    "OBJECT_NAME": "STARLINK-31399",
    "OBJECT_ID": "24064U",
    "EPOCH": "2025-11-11T04:22:55.369920",
    "MEAN_MOTION": 15.27579233,
    "ECCENTRICITY": 8.66e-05,
    "INCLINATION": 43.0031,
    "RA_OF_ASC_NODE": 5.2621,
    "ARG_OF_PERICENTER": 254.0759,
    "MEAN_ANOMALY": 105.9997,
    "EPHEMERIS_TYPE": 0,
    "CLASSIFICATION_TYPE": "U",
    "NORAD_CAT_ID": 59416,
    "ELEMENT_SET_NO": 999,
    "REV_AT_EPOCH": 9110,
    "BSTAR": 1.3089000000000001e-05,
    "MEAN_MOTION_DOT": 9.8e-07,
    "MEAN_MOTION_DDOT": 0.0,
    "TLE_LINE1": "1 59416U 24064U   25315.18258530  .00000098  00000+0  13089-4 0  9990",
    "TLE_LINE2": "2 59416  43.0031   5.2621 0000866 254.0759 105.9997 15.27579233 91101",
    "COMMENT": "Grouped by shell and plane from TLE"
  },
  {
    "OBJECT_NAME": "STARLINK-31414",
    "OBJECT_ID": "24064W",
    "EPOCH": "2025-11-11T04:48:47.701440",
    "MEAN_MOTION": 15.27620668,
    "ECCENTRICITY": 0.0001598,
    "INCLINATION": 43.005,
    "RA_OF_ASC_NODE": 5.4057,
    "ARG_OF_PERICENTER": 298.6008,
    "MEAN_ANOMALY": 61.4682,
    "EPHEMERIS_TYPE": 0,
    "CLASSIFICATION_TYPE": "U",
    "NORAD_CAT_ID": 59418,
    "ELEMENT_SET_NO": 999,
    "REV_AT_EPOCH": 9110,
    "BSTAR": 0.0,
    "MEAN_MOTION_DOT": -0.00017952,
    "MEAN_MOTION_DDOT": 0.0,
    "TLE_LINE1": "1 59418U 24064W   25315.20055210 -.00017952  00000+0 -64359-3 0  9999",
    "TLE_LINE2": "2 59418  43.0050   5.4057 0001598 298.6008  61.4682 15.27620668 91109",
    "COMMENT": "Grouped by shell and plane from TLE"
  },
  {
    "OBJECT_NAME": "STARLINK-31415",
    "OBJECT_ID": "24064X",
    "EPOCH": "2025-11-11T03:51:40.819104",
    "MEAN_MOTION": 15.27573737,
    "ECCENTRICITY": 0.0001543,
    "INCLINATION": 43.002,
    "RA_OF_ASC_NODE": 5.9672,
    "ARG_OF_PERICENTER": 274.3987,
    "MEAN_ANOMALY": 85.6688,
    "EPHEMERIS_TYPE": 0,
    "CLASSIFICATION_TYPE": "U",
    "NORAD_CAT_ID": 59419,
    "ELEMENT_SET_NO": 999,
    "REV_AT_EPOCH": 9109,
    "BSTAR": 6.303999999999999e-05,
    "MEAN_MOTION_DOT": 1.473e-05,
    "MEAN_MOTION_DDOT": 0.0,
    "TLE_LINE1": "1 59419U 24064X   25315.16088911  .00001473  00000+0  63040-4 0  9995",
    "TLE_LINE2": "2 59419  43.0020   5.9672 0001543 274.3987  85.6688 15.27573737 91098",
    "COMMENT": "Grouped by shell and plane from TLE"
  }
]